     2.100          NAVIGATION                              RINEX VERSION / TYPE
fic2rin                                 09/21/2013 00:19:55 PGM / RUN BY / DATE
                                                            END OF HEADER
30 13  9 20  1 57  4.0 -.111153349280D-05 -.582076609135D-10  .277555756156D-16
     .500000000000D+01  .107812500000D+02  .531200698070D-08 -.221349932488D+01
     .733882188797D-06  .834251020569D-02  .284612178802D-05  .515361620712D+04
     .439024000000D+06 -.130385160446D-06  .167666459218D+01  .162050127983D-06
     .944278558409D+00  .316718750000D+03 -.757916370990D+00 -.866571810480D-08
     .124648049234D-09  .100000000000D+01  .175800000000D+04  .000000000000D+00
     .768000000000D+03  .630000000000D+02 -.232830643654D-08  .500000000000D+01
     .432006000000D+06  .400000000000D+01
25 13  9 20  1 59 28.0  .149126164615D-03  .409272615798D-11  .000000000000D+00
     .130000000000D+02  .681562500000D+02  .401552440557D-08 -.242874813616D+01
     .366382300854D-05  .274932163302D-02  .107958912849D-04  .515372328377D+04
     .439168000000D+06  .372529029846D-08  .710309075590D+00 -.167638063431D-07
     .974141876119D+00  .178531250000D+03  .739400756678D+00 -.777532387345D-08
     .545022702383D-09  .100000000000D+01  .175800000000D+04  .000000000000D+00
     .240000000000D+01  .000000000000D+00  .558793544769D-08  .130000000000D+02
     .432006000000D+06  .400000000000D+01
 3 13  9 20  1 59 44.0  .261798035353D-03  .500222085975D-11  .000000000000D+00
     .180000000000D+02  .150312500000D+02  .562987736413D-08  .414338494244D+00
     .808387994766D-06  .167188158957D-01  .312365591526D-05  .515371859932D+04
     .439184000000D+06 -.229105353355D-06  .161732673309D+01 -.186264514923D-08
     .935241427325D+00  .308281250000D+03  .133495512514D+01 -.912645158191D-08
     .389301930274D-10  .100000000000D+01  .175800000000D+04  .000000000000D+00
     .240000000000D+01  .000000000000D+00 -.465661287308D-08  .180000000000D+02
     .432006000000D+06  .400000000000D+01
 8 13  9 20  1 59 44.0  .855233520269D-05  .227373675443D-12  .000000000000D+00
     .100000000000D+01 -.683437500000D+02  .337692637682D-08 -.170487718970D+01
    -.377930700779D-05  .134502422297D-01  .126250088215D-04  .515369687080D+04
     .439184000000D+06  .558793544769D-07 -.215691355702D+00 -.152736902237D-06
     .998142652031D+00  .153281250000D+03 -.283437468992D+01 -.739066499372D-08
    -.248224625266D-09  .100000000000D+01  .175800000000D+04  .000000000000D+00
     .240000000000D+01  .000000000000D+00 -.372529029846D-08  .100000000000D+01
     .432006000000D+06  .400000000000D+01
 1 13  9 20  2  0  0.0  .766008161008D-04  .409272615798D-11  .000000000000D+00
     .400000000000D+02 -.591875000000D+02  .440661212451D-08 -.567295985995D+00
    -.305660068989D-05  .234454381280D-02  .111479312181D-04  .515369492531D+04
     .439200000000D+06  .298023223877D-07  .281312239914D+01  .409781932831D-07
     .960820871783D+00  .164906250000D+03  .381876488357D+00 -.799569019545D-08
    -.377872882779D-09  .100000000000D+01  .175800000000D+04  .000000000000D+00
     .240000000000D+01  .000000000000D+00  .838190317154D-08  .400000000000D+02
     .432006000000D+06  .400000000000D+01
 2 13  9 20  2  0  0.0  .452132429928D-03  .181898940355D-11  .000000000000D+00
     .860000000000D+02 -.614687500000D+02  .499235080859D-08  .258871220237D+00
    -.319443643093D-05  .126043752534D-01  .113677233458D-04  .515373417091D+04
     .439200000000D+06  .763684511185D-07  .278897640520D+01  .217929482460D-06
     .939313339839D+00  .152187500000D+03 -.255880723977D+01 -.840785022071D-08
    -.468590947265D-09  .100000000000D+01  .175800000000D+04  .000000000000D+00
     .240000000000D+01  .000000000000D+00 -.172294676304D-07  .860000000000D+02
     .432006000000D+06  .400000000000D+01
 4 13  9 20  2  0  0.0  .933185219765D-06  .682121026330D-12  .000000000000D+00
     .300000000000D+02 -.662812500000D+02  .482841540860D-08 -.276030210342D+01
    -.375136733055D-05  .105681350688D-01  .119432806969D-04  .515361639786D+04
     .439200000000D+06  .191852450371D-06  .280528450393D+01 -.130385160446D-06
     .938358095295D+00  .133750000000D+03  .102407217571D+01 -.807676500111D-08
    -.376087094108D-09  .100000000000D+01  .175800000000D+04  .000000000000D+00
     .240000000000D+01  .000000000000D+00 -.605359673500D-08  .300000000000D+02
     .432006000000D+06  .400000000000D+01
 5 13  9 20  2  0  0.0 -.399576034397D-03  .113686837722D-12  .000000000000D+00
     .710000000000D+02  .107843750000D+03  .488770359247D-08  .253201002427D+01
     .562146306038D-05  .325928418897D-02  .105556100607D-04  .515371105385D+04
     .439200000000D+06 -.596046447754D-07 -.242875714335D+01 -.186264514923D-08
     .948423713380D+00  .169062500000D+03  .272052845053D+00 -.821462788651D-08
     .555023118941D-09  .100000000000D+01  .175800000000D+04  .000000000000D+00
     .240000000000D+01  .000000000000D+00 -.977888703346D-08  .710000000000D+02
     .432006000000D+06  .400000000000D+01
 6 13  9 20  2  0  0.0  .624228268862D-04  .188720150618D-10  .000000000000D+00
     .780000000000D+02  .390625000000D+01  .542058293189D-08  .223682801575D+01
     .169500708580D-06  .811165105551D-02  .250525772572D-05  .515367540550D+04
     .439200000000D+06  .223517417908D-07  .169771225875D+01  .184401869774D-06
     .941813158161D+00  .320125000000D+03 -.227193070726D+00 -.873000649695D-08
     .357157734196D-11  .100000000000D+01  .175800000000D+04  .000000000000D+00
     .340000000000D+01  .000000000000D+00 -.512227416039D-08  .780000000000D+02
     .432006000000D+06  .400000000000D+01
 7 13  9 20  2  0  0.0  .260539818555D-03  .420641299570D-11  .000000000000D+00
     .950000000000D+02 -.693125000000D+02  .401373861690D-08 -.113382923869D+01
    -.378675758839D-05  .694244576152D-02  .113509595394D-04  .515366894722D+04
     .439200000000D+06  .108033418655D-06 -.309457558127D+00 -.109896063805D-06
     .975178915339D+00  .168875000000D+03 -.287674360776D+01 -.774710841245D-08
    -.447518640948D-09  .100000000000D+01  .175800000000D+04  .000000000000D+00
     .240000000000D+01  .000000000000D+00 -.107102096081D-07  .950000000000D+02
     .432006000000D+06  .400000000000D+01
 9 13  9 20  2  0  0.0  .269697979093D-03  .272848410532D-11  .000000000000D+00
     .580000000000D+02 -.762187500000D+02  .389480509141D-08  .446485274932D-01
    -.412948429585D-05  .168582153274D-01  .114999711514D-04  .515372139168D+04
     .439200000000D+06 -.253319740295D-06 -.331824152139D+00 -.949949026108D-07
     .983762572540D+00  .175031250000D+03  .172684603091D+01 -.799104714490D-08
    -.519664503255D-09  .100000000000D+01  .175800000000D+04  .000000000000D+00
     .485000000000D+01  .000000000000D+00 -.558793544769D-08  .580000000000D+02
     .432006000000D+06  .400000000000D+01
10 13  9 20  2  0  0.0 -.951196998358D-04 -.147792889038D-11  .000000000000D+00
     .860000000000D+02  .112718750000D+03  .485163066132D-08  .276146112368D+01
     .567920506001D-05  .127760352334D-01  .100098550320D-04  .515366818047D+04
     .439200000000D+06  .186264514923D-07 -.241001522000D+01 -.160187482834D-06
     .943225836708D+00  .177062500000D+03  .817024518294D+00 -.806855037322D-08
     .553951645738D-09  .100000000000D+01  .175800000000D+04  .000000000000D+00
     .340000000000D+01  .000000000000D+00 -.232830643654D-08  .860000000000D+02
     .432006000000D+06  .400000000000D+01
11 13  9 20  2  0  0.0 -.421287026256D-03 -.352429196937D-11  .000000000000D+00
     .410000000000D+02 -.799375000000D+02  .636312219244D-08 -.903162062291D+00
    -.393204391003D-05  .145855448209D-01  .759772956371D-05  .515368978691D+04
     .439200000000D+06 -.104308128357D-06  .250774569635D+01  .299885869026D-06
     .889547911115D+00  .196562500000D+03  .121424149918D+01 -.919252576274D-08
    -.443589905872D-09  .100000000000D+01  .175800000000D+04  .000000000000D+00
     .240000000000D+01  .000000000000D+00 -.116415321827D-07  .410000000000D+02
     .432006000000D+06  .400000000000D+01
12 13  9 20  2  0  0.0  .157355796546D-03  .216004991671D-11  .000000000000D+00
     .710000000000D+02  .693750000000D+02  .382480217551D-08 -.144528219952D+01
     .366009771824D-05  .452904170379D-02  .107698142529D-04  .515376451302D+04
     .439200000000D+06  .465661287308D-07  .749870532215D+00 -.109896063805D-06
     .985313885981D+00  .186156250000D+03  .335949206616D+00 -.770103506474D-08
     .579667002600D-09  .100000000000D+01  .175800000000D+04  .000000000000D+00
     .240000000000D+01  .000000000000D+00 -.116415321827D-07  .710000000000D+02
     .432006000000D+06  .400000000000D+01
13 13  9 20  2  0  0.0  .782366842031D-04 -.375166564481D-11  .000000000000D+00
     .670000000000D+02 -.340625000000D+02  .458947688442D-08  .119756524541D+01
    -.197999179363D-05  .503045832738D-02  .261887907982D-05  .515369432259D+04
     .439200000000D+06  .447034835815D-07 -.127573077387D+01 -.106170773506D-06
     .979858680556D+00  .335500000000D+03  .220122158741D+01 -.832427531091D-08
    -.266082511976D-09  .100000000000D+01  .175800000000D+04  .000000000000D+00
     .240000000000D+01  .000000000000D+00 -.107102096081D-07  .670000000000D+02
     .432006000000D+06  .400000000000D+01
14 13  9 20  2  0  0.0  .215364154428D-03 -.909494701773D-12  .000000000000D+00
     .430000000000D+02 -.182812500000D+02  .483162982820D-08  .143554642996D+01
    -.106915831566D-05  .741721200757D-02  .267475843430D-05  .515354967690D+04
     .439200000000D+06 -.160187482834D-06 -.130581919810D+01 -.130385160446D-07
     .972489842231D+00  .337250000000D+03 -.200628489334D+01 -.851178312136D-08
    -.186793494985D-09  .100000000000D+01  .175800000000D+04  .000000000000D+00
     .240000000000D+01  .000000000000D+00 -.884756445885D-08  .430000000000D+02
     .432006000000D+06  .400000000000D+01
